ORBCOMM FM40            
1 33065U 08031F   25069.75771870  .00004086  00000+0  54591-3 0  9997
2 33065  48.4409  77.0334 0007739 321.2523 208.9153 14.81217457899561
VESSELSAT 1             
1 37840U 11058C   25069.89502474  .00000455  00000+0  10334-3 0  9995
2 37840  19.9631 328.6447 0013664 185.0460 174.9807 14.11319570692635
ORBCOMM FM109           
1 40086U 14040A   25070.19605745  .00001174  00000+0  29026-3 0  9992
2 40086  47.0026 119.0136 0002832 259.4145 100.6421 14.57895014566886
ORBCOMM FM106           
1 40088U 14040C   25069.83543910  .00002057  00000+0  37816-3 0  9995
2 40088  47.0604 311.6597 0017170 329.0000  30.9877 14.69026024569014
ORBCOMM FM111           
1 40089U 14040D   25069.71781845  .00005084  00000+0  60329-3 0  9992
2 40089  47.0007 175.5396 0029053  81.0637 279.3546 14.85429208575580
